start=new Date('2021-09-06T00:00:00.000Z').valueOf();
sats=[{"CENTER_NAME":"EARTH","INCLINATION":"53.0545","OBJECT_TYPE":"PAYLOAD","MEAN_MOTION_DDOT":"0.0000000000000","SITE":"AFETR","REV_AT_EPOCH":"2006","OBJECT_NAME":"STARLINK-2536","SEMIMAJOR_AXIS":"6925.341","ELEMENT_SET_NO":"999","MEAN_MOTION":"15.06402420","RA_OF_ASC_NODE":"281.3693","REF_FRAME":"TEME","LAUNCH_DATE":"2021-04-29","PERIAPSIS":"547.022","BSTAR":"0.00005393000000","MEAN_ELEMENT_THEORY":"SGP4","MEAN_MOTION_DOT":"0.00000522","TIME_SYSTEM":"UTC","OBJECT_ID":"2021-036AL","MEAN_ANOMALY":"299.2510","COUNTRY_CODE":"US","APOAPSIS":"547.390","ECCENTRICITY":"0.00002660","CLASSIFICATION_TYPE":"U","ARG_OF_PERICENTER":"60.8505","FILE":"3109252","RCS_SIZE":"LARGE","EPOCH":"2021-09-05T13:26:51.530496","PERIOD":"95.592","EPHEMERIS_TYPE":"0","GP_ID":"184140482","TLE_LINE2":"2 48310  53.0545 281.3693 0000266  60.8505 299.2510 15.06402420 20060","NORAD_CAT_ID":"48310","DECAY_DATE":null,"TLE_LINE1":"1 48310U 21036AL  21248.56031864  .00000522  00000-0  53930-4 0  9991"},{"MEAN_ELEMENT_THEORY":"SGP4","PERIAPSIS":"546.917","BSTAR":"-0.00005241000000","REF_FRAME":"TEME","LAUNCH_DATE":"2021-04-29","MEAN_MOTION":"15.06393980","RA_OF_ASC_NODE":"281.6892","OBJECT_NAME":"STARLINK-2534","REV_AT_EPOCH":"2005","SEMIMAJOR_AXIS":"6925.367","ELEMENT_SET_NO":"999","SITE":"AFETR","INCLINATION":"53.0555","MEAN_MOTION_DDOT":"0.0000000000000","OBJECT_TYPE":"PAYLOAD","CENTER_NAME":"EARTH","TLE_LINE1":"1 48311U 21036AM  21248.49028108 -.00001061  00000-0 -52410-4 0  9994","NORAD_CAT_ID":"48311","TLE_LINE2":"2 48311  53.0555 281.6892 0000455  68.2810 291.8227 15.06393980 20059","GP_ID":"184141233","DECAY_DATE":null,"PERIOD":"95.593","EPHEMERIS_TYPE":"0","EPOCH":"2021-09-05T11:46:00.285312","RCS_SIZE":"LARGE","CLASSIFICATION_TYPE":"U","ECCENTRICITY":"0.00004550","FILE":"3109252","ARG_OF_PERICENTER":"68.2810","COUNTRY_CODE":"US","APOAPSIS":"547.547","OBJECT_ID":"2021-036AM","MEAN_ANOMALY":"291.8227","TIME_SYSTEM":"UTC","MEAN_MOTION_DOT":"-0.00001061"},{"TLE_LINE1":"1 48312U 21036AN  21248.55295245  .00000946  00000-0  82368-4 0  9994","DECAY_DATE":null,"NORAD_CAT_ID":"48312","TLE_LINE2":"2 48312  53.0560 281.4118 0000470  78.7154 281.3888 15.06392193 20062","GP_ID":"184140974","EPHEMERIS_TYPE":"0","PERIOD":"95.593","RCS_SIZE":"LARGE","EPOCH":"2021-09-05T13:16:15.091680","ARG_OF_PERICENTER":"78.7154","FILE":"3109252","ECCENTRICITY":"0.00004700","CLASSIFICATION_TYPE":"U","APOAPSIS":"547.563","COUNTRY_CODE":"US","MEAN_ANOMALY":"281.3888","OBJECT_ID":"2021-036AN","MEAN_MOTION_DOT":"0.00000946","TIME_SYSTEM":"UTC","MEAN_ELEMENT_THEORY":"SGP4","BSTAR":"0.00008236800000","PERIAPSIS":"546.912","LAUNCH_DATE":"2021-04-29","REF_FRAME":"TEME","RA_OF_ASC_NODE":"281.4118","MEAN_MOTION":"15.06392193","SEMIMAJOR_AXIS":"6925.372","ELEMENT_SET_NO":"999","REV_AT_EPOCH":"2006","OBJECT_NAME":"STARLINK-2061","SITE":"AFETR","OBJECT_TYPE":"PAYLOAD","MEAN_MOTION_DDOT":"0.0000000000000","INCLINATION":"53.0560","CENTER_NAME":"EARTH"},{"ARG_OF_PERICENTER":"88.6696","FILE":"3109252","ECCENTRICITY":"0.00001430","CLASSIFICATION_TYPE":"U","APOAPSIS":"547.327","COUNTRY_CODE":"US","MEAN_ANOMALY":"271.4309","OBJECT_ID":"2021-036AP","MEAN_MOTION_DOT":"-0.00001032","TIME_SYSTEM":"UTC","TLE_LINE1":"1 48313U 21036AP  21248.48290786 -.00001032  00000-0 -50411-4 0  9995","DECAY_DATE":null,"NORAD_CAT_ID":"48313","TLE_LINE2":"2 48313  53.0569 281.7327 0000143  88.6696 271.4309 15.06395204 20047","GP_ID":"184140232","EPHEMERIS_TYPE":"0","PERIOD":"95.592","RCS_SIZE":"LARGE","EPOCH":"2021-09-05T11:35:23.239104","SEMIMAJOR_AXIS":"6925.363","ELEMENT_SET_NO":"999","REV_AT_EPOCH":"2004","OBJECT_NAME":"STARLINK-2541","SITE":"AFETR","OBJECT_TYPE":"PAYLOAD","MEAN_MOTION_DDOT":"0.0000000000000","INCLINATION":"53.0569","CENTER_NAME":"EARTH","MEAN_ELEMENT_THEORY":"SGP4","BSTAR":"-0.00005041100000","PERIAPSIS":"547.129","LAUNCH_DATE":"2021-04-29","REF_FRAME":"TEME","MEAN_MOTION":"15.06395204","RA_OF_ASC_NODE":"281.7327"},{"GP_ID":"184166920","TLE_LINE2":"2 48314  53.0566 281.1527 0000153 168.8552 191.2440 15.06402760 20067","NORAD_CAT_ID":"48314","DECAY_DATE":null,"TLE_LINE1":"1 48314U 21036AQ  21248.61192829  .00000797  00000-0  72373-4 0  9996","EPOCH":"2021-09-05T14:41:10.604256","RCS_SIZE":"LARGE","PERIOD":"95.592","EPHEMERIS_TYPE":"0","COUNTRY_CODE":"US","APOAPSIS":"547.311","CLASSIFICATION_TYPE":"U","ECCENTRICITY":"0.00001530","FILE":"3109348","ARG_OF_PERICENTER":"168.8552","TIME_SYSTEM":"UTC","MEAN_MOTION_DOT":"0.00000797","OBJECT_ID":"2021-036AQ","MEAN_ANOMALY":"191.2440","PERIAPSIS":"547.099","BSTAR":"0.00007237300000","MEAN_ELEMENT_THEORY":"SGP4","MEAN_MOTION":"15.06402760","RA_OF_ASC_NODE":"281.1527","REF_FRAME":"TEME","LAUNCH_DATE":"2021-04-29","SITE":"AFETR","OBJECT_NAME":"STARLINK-2549","REV_AT_EPOCH":"2006","SEMIMAJOR_AXIS":"6925.340","ELEMENT_SET_NO":"999","CENTER_NAME":"EARTH","INCLINATION":"53.0566","MEAN_MOTION_DDOT":"0.0000000000000","OBJECT_TYPE":"PAYLOAD"},{"MEAN_ELEMENT_THEORY":"SGP4","PERIAPSIS":"546.846","BSTAR":"0.00008682700000","REF_FRAME":"TEME","LAUNCH_DATE":"2021-04-29","RA_OF_ASC_NODE":"281.1671","MEAN_MOTION":"15.06386949","REV_AT_EPOCH":"2006","OBJECT_NAME":"STARLINK-2506","SEMIMAJOR_AXIS":"6925.389","ELEMENT_SET_NO":"999","SITE":"AFETR","INCLINATION":"53.0550","OBJECT_TYPE":"PAYLOAD","MEAN_MOTION_DDOT":"0.0000000000000","CENTER_NAME":"EARTH","TLE_LINE1":"1 48315U 21036AR  21248.60824373  .00001012  00000-0  86827-4 0  9992","NORAD_CAT_ID":"48315","TLE_LINE2":"2 48315  53.0550 281.1671 0000588 116.4477 243.6573 15.06386949 20067","GP_ID":"184165171","DECAY_DATE":null,"PERIOD":"95.593","EPHEMERIS_TYPE":"0","RCS_SIZE":"LARGE","EPOCH":"2021-09-05T14:35:52.258272","ECCENTRICITY":"0.00005880","CLASSIFICATION_TYPE":"U","ARG_OF_PERICENTER":"116.4477","FILE":"3109348","COUNTRY_CODE":"US","APOAPSIS":"547.661","OBJECT_ID":"2021-036AR","MEAN_ANOMALY":"243.6573","MEAN_MOTION_DOT":"0.00001012","TIME_SYSTEM":"UTC"},{"OBJECT_ID":"2021-036AS","MEAN_ANOMALY":"277.0154","TIME_SYSTEM":"UTC","MEAN_MOTION_DOT":"0.00000600","CLASSIFICATION_TYPE":"U","ECCENTRICITY":"0.00004240","FILE":"3109348","ARG_OF_PERICENTER":"83.0883","COUNTRY_CODE":"US","APOAPSIS":"547.500","PERIOD":"95.592","EPHEMERIS_TYPE":"0","EPOCH":"2021-09-05T14:30:34.047072","RCS_SIZE":"LARGE","TLE_LINE1":"1 48316U 21036AS  21248.60456073  .00000600  00000-0  59143-4 0  9994","NORAD_CAT_ID":"48316","TLE_LINE2":"2 48316  53.0589 281.1749 0000424  83.0883 277.0154 15.06402280 20068","GP_ID":"184165922","DECAY_DATE":null,"INCLINATION":"53.0589","MEAN_MOTION_DDOT":"0.0000000000000","OBJECT_TYPE":"PAYLOAD","CENTER_NAME":"EARTH","OBJECT_NAME":"STARLINK-2507","REV_AT_EPOCH":"2006","SEMIMAJOR_AXIS":"6925.342","ELEMENT_SET_NO":"999","SITE":"AFETR","REF_FRAME":"TEME","LAUNCH_DATE":"2021-04-29","RA_OF_ASC_NODE":"281.1749","MEAN_MOTION":"15.06402280","MEAN_ELEMENT_THEORY":"SGP4","PERIAPSIS":"546.913","BSTAR":"0.00005914300000"},{"RA_OF_ASC_NODE":"282.0739","MEAN_MOTION":"15.06397471","LAUNCH_DATE":"2021-04-29","REF_FRAME":"TEME","BSTAR":"0.00008129100000","PERIAPSIS":"547.003","MEAN_ELEMENT_THEORY":"SGP4","CENTER_NAME":"EARTH","MEAN_MOTION_DDOT":"0.0000000000000","OBJECT_TYPE":"PAYLOAD","INCLINATION":"53.0608","SITE":"AFETR","SEMIMAJOR_AXIS":"6925.356","ELEMENT_SET_NO":"999","OBJECT_NAME":"STARLINK-2513","REV_AT_EPOCH":"2003","EPOCH":"2021-09-05T09:38:38.433408","RCS_SIZE":"LARGE","EPHEMERIS_TYPE":"0","PERIOD":"95.592","DECAY_DATE":null,"GP_ID":"184139732","TLE_LINE2":"2 48317  53.0608 282.0739 0000315 128.2349 231.8668 15.06397471 20038","NORAD_CAT_ID":"48317","TLE_LINE1":"1 48317U 21036AT  21248.40183372  .00000930  00000-0  81291-4 0  9997","TIME_SYSTEM":"UTC","MEAN_MOTION_DOT":"0.00000930","MEAN_ANOMALY":"231.8668","OBJECT_ID":"2021-036AT","APOAPSIS":"547.439","COUNTRY_CODE":"US","FILE":"3109252","ARG_OF_PERICENTER":"128.2349","CLASSIFICATION_TYPE":"U","ECCENTRICITY":"0.00003150"},{"SITE":"AFETR","ELEMENT_SET_NO":"999","SEMIMAJOR_AXIS":"6925.398","REV_AT_EPOCH":"1992","OBJECT_NAME":"STARLINK-2509","CENTER_NAME":"EARTH","OBJECT_TYPE":"PAYLOAD","MEAN_MOTION_DDOT":"0.0000000000000","INCLINATION":"53.0508","BSTAR":"0.00016279000000","PERIAPSIS":"547.233","MEAN_ELEMENT_THEORY":"SGP4","MEAN_MOTION":"15.06383919","RA_OF_ASC_NODE":"291.2412","LAUNCH_DATE":"2021-04-29","REF_FRAME":"TEME","APOAPSIS":"547.293","COUNTRY_CODE":"US","ARG_OF_PERICENTER":"327.9186","FILE":"3109348","ECCENTRICITY":"0.00000430","CLASSIFICATION_TYPE":"U","MEAN_MOTION_DOT":"0.00002144","TIME_SYSTEM":"UTC","MEAN_ANOMALY":"32.1800","OBJECT_ID":"2021-036AU","DECAY_DATE":null,"TLE_LINE2":"2 48318  53.0508 291.2412 0000043 327.9186  32.1800 15.06383919 19921","GP_ID":"184166420","NORAD_CAT_ID":"48318","TLE_LINE1":"1 48318U 21036AU  21248.59258053  .00002144  00000-0  16279-3 0  9999","RCS_SIZE":"LARGE","EPOCH":"2021-09-05T14:13:18.957792","EPHEMERIS_TYPE":"0","PERIOD":"95.593"},{"APOAPSIS":"547.456","COUNTRY_CODE":"US","FILE":"3109348","ARG_OF_PERICENTER":"147.8964","CLASSIFICATION_TYPE":"U","ECCENTRICITY":"0.00003740","TIME_SYSTEM":"UTC","MEAN_MOTION_DOT":"0.00000992","MEAN_ANOMALY":"212.2048","OBJECT_ID":"2021-036AV","DECAY_DATE":null,"TLE_LINE2":"2 48319  53.0532 291.2595 0000374 147.8964 212.2048 15.06405404 19920","NORAD_CAT_ID":"48319","GP_ID":"184165672","TLE_LINE1":"1 48319U 21036AV  21248.58888555  .00000992  00000-0  85439-4 0  9999","EPOCH":"2021-09-05T14:07:59.711520","RCS_SIZE":"LARGE","EPHEMERIS_TYPE":"0","PERIOD":"95.592","SITE":"AFETR","SEMIMAJOR_AXIS":"6925.332","ELEMENT_SET_NO":"999","OBJECT_NAME":"STARLINK-2512","REV_AT_EPOCH":"1992","CENTER_NAME":"EARTH","MEAN_MOTION_DDOT":"0.0000000000000","OBJECT_TYPE":"PAYLOAD","INCLINATION":"53.0532","BSTAR":"0.00008543900000","PERIAPSIS":"546.938","MEAN_ELEMENT_THEORY":"SGP4","RA_OF_ASC_NODE":"291.2595","MEAN_MOTION":"15.06405404","LAUNCH_DATE":"2021-04-29","REF_FRAME":"TEME"}];
